full_name,a,e,i,om,w,q,ad,per_y,data_arc,H
 44641 (1999 RZ111),1.928,0.0432,20.14,318.4,71.59,1.845,2.01,2.68,9475,15.88
 44642 (1999 RL114),2.216,0.0766,5.79,178.24,273.54,2.047,2.39,3.3,9509,16.25
 44643 (1999 RS114),2.257,0.1717,4.74,242.36,36.06,1.869,2.64,3.39,10509,15.51
 44644 (1999 RY114),2.202,0.1246,5.62,216.79,221.18,1.928,2.48,3.27,9515,15.48
 44645 (1999 RC118),2.32,0.0785,5.73,253.32,190.72,2.138,2.5,3.53,25591,15.15
 44646 (1999 RN121),2.276,0.0998,6.55,155.3,105.23,2.048,2.5,3.43,11980,16
 44647 (1999 RA129),2.748,0.1365,2.62,183.66,178.14,2.373,3.12,4.56,12204,14.96
 44648 (1999 RN140),2.389,0.2056,1.84,2.96,265.4,1.898,2.88,3.69,11077,16.09
 44649 (1999 RY141),2.212,0.115,2.19,203.71,194.43,1.958,2.47,3.29,9512,16.11
 44650 (1999 RF143),2.21,0.0694,3.92,142.87,322.73,2.057,2.36,3.29,12112,16.06
 44651 (1999 RB148),2.259,0.1063,3.16,238.11,227.86,2.018,2.5,3.39,9450,15.77
 44652 (1999 RC150),2.224,0.1442,2.29,321.23,102.36,1.903,2.54,3.32,12100,15.53
 44653 (1999 RO151),2.23,0.1508,2.59,102.94,177.81,1.894,2.57,3.33,10577,15.98
 44654 (1999 RR155),2.252,0.2241,3.43,245.14,69.39,1.747,2.76,3.38,15197,15.97
 44655 (1999 RQ158),2.168,0.1159,1.9,153.6,157.42,1.916,2.42,3.19,11131,15.95
 44656 (1999 RU159),2.182,0.1068,3.15,71.1,346.45,1.949,2.41,3.22,12175,16.43
 44657 (1999 RK163),2.163,0.0988,2.71,228.55,199.7,1.949,2.38,3.18,9694,16.32
 44658 (1999 RD168),2.149,0.1574,1.19,77.03,228.16,1.811,2.49,3.15,10667,16.24
 44659 (1999 RJ169),2.281,0.0384,7.01,330.48,193.28,2.193,2.37,3.44,9419,15.76
 44660 (1999 RQ169),2.168,0.1158,2.98,217.76,158.1,1.917,2.42,3.19,9145,16.25
 44661 (1999 RX169),2.149,0.1321,5.49,337.89,255.8,1.865,2.43,3.15,9607,15.32
 44662 (1999 RV170),2.184,0.0578,1.71,161.4,265.59,2.058,2.31,3.23,12173,16.31
 44663 (1999 RS171),2.374,0.1125,6.68,152.57,218.98,2.107,2.64,3.66,9205,15.6
 44664 (1999 RX171),2.194,0.1338,2.66,27.57,315.49,1.901,2.49,3.25,10599,15.56
 44665 (1999 RF174),2.284,0.116,3.36,44.85,49.28,2.019,2.55,3.45,9303,15.8
 44666 (1999 RX176),2.227,0.053,3.21,189.36,181.16,2.109,2.35,3.32,9514,16.17
 44667 (1999 RB179),2.353,0.1274,7,136.13,234.9,2.053,2.65,3.61,9515,15.74
 44668 (1999 RC181),2.269,0.0765,2.41,111.31,323.67,2.095,2.44,3.42,11929,15.72
 44669 (1999 RC182),2.225,0.1604,1.95,180,64.37,1.868,2.58,3.32,9567,15.75
 44670 (1999 RQ183),2.183,0.108,3.24,136.98,144.13,1.948,2.42,3.23,11093,16.6
 44671 (1999 RE184),2.269,0.1181,8.26,153.13,190.81,2.001,2.54,3.42,9418,16.08
 44672 (1999 RL184),2.208,0.1345,6.16,136.61,158.14,1.911,2.51,3.28,9516,15.15
 44673 (1999 RE185),2.238,0.0769,7.69,125.93,52.85,2.066,2.41,3.35,9514,14.86
 44674 (1999 RD186),2.192,0.0545,2.78,137.51,340.75,2.073,2.31,3.25,11104,15.95
 44675 (1999 RX186),2.211,0.1069,2.32,281.66,309.67,1.975,2.45,3.29,9517,15.63
 44676 (1999 RG187),2.281,0.1224,4.84,14.92,91.15,2.002,2.56,3.45,9388,15.27
 44677 (1999 RK190),2.216,0.0551,5.37,339.35,128.48,2.094,2.34,3.3,9536,15.75
 44678 (1999 RP192),2.392,0.0784,6.04,182.16,7.94,2.205,2.58,3.7,10542,15.79
 44679 (1999 RQ193),2.334,0.1913,5.67,132.46,158.52,1.887,2.78,3.57,9262,14.95
 44680 (1999 RD194),2.219,0.1075,5.53,216.39,5.71,1.981,2.46,3.31,10574,14.76
 44681 (1999 RZ195),2.283,0.1511,5.81,240.58,115.59,1.938,2.63,3.45,9418,15.59
 44682 (1999 RK197),2.398,0.1066,4.68,271.39,228.85,2.142,2.65,3.71,9485,14.55
 44683 (1999 RR197),2.324,0.1052,6.38,293.13,220.08,2.08,2.57,3.54,9230,15.03
 44684 (1999 RY197),2.287,0.1464,6.55,261.8,6.21,1.953,2.62,3.46,13979,15.42
 44685 (1999 RM200),2.597,0.0854,13.31,245.67,156.97,2.376,2.82,4.19,9241,14.8
 44686 (1999 RN200),2.313,0.0534,11.28,238.19,207.5,2.19,2.44,3.52,9249,15
 44687 (1999 RS204),2.572,0.0996,11.96,249.01,248.87,2.316,2.83,4.12,9778,14.4
 44688 (1999 RR207),2.288,0.1677,7.62,222.14,122.07,1.904,2.67,3.46,11426,15.32
 44689 (1999 RK210),2.471,0.0677,7.38,251.48,122.02,2.304,2.64,3.88,9455,14.9
 44690 (1999 RK211),2.174,0.1327,4.83,295.85,328.14,1.886,2.46,3.21,9573,15.24
 44691 (1999 RF221),2.33,0.1028,6.73,123.27,126.27,2.091,2.57,3.56,9301,14.75
 44692 (1999 RG225),2.26,0.1747,5.13,322.53,70.33,1.865,2.65,3.4,11012,15.31
 44693 (1999 RH234),2.322,0.1293,7.32,127.08,236.43,2.022,2.62,3.54,10725,15.63
 44694 Aprilhinton (1999 RT234),2.199,0.0805,4.97,106.44,106.23,2.022,2.38,3.26,11103,15.47
 44695 (1999 RY235),2.259,0.094,9.98,102.35,324.55,2.047,2.47,3.4,9481,15.11
 44696 (1999 RZ235),2.228,0.1626,8.82,113.29,253.92,1.866,2.59,3.33,13662,15.38
 44697 (1999 RC239),2.257,0.1378,7.17,132.32,106.13,1.946,2.57,3.39,9485,15.74
 44698 (1999 RS247),2.305,0.0486,6.71,113.51,18.14,2.193,2.42,3.5,9321,15.27
 44699 (1999 SG),2.301,0.1151,5.32,7.91,112.97,2.036,2.57,3.49,11358,14.53
 44700 (1999 SG3),2.32,0.2229,22.22,259.03,109.43,1.803,2.84,3.53,25550,13.92
 44701 (1999 SD7),2.303,0.0513,6.91,82.97,114.57,2.185,2.42,3.5,9306,14.23
 44702 (1999 SJ7),2.318,0.1981,6.59,120.28,277.58,1.859,2.78,3.53,9194,15.13
 44703 (1999 SX10),2.355,0.0587,7.52,105.11,16.15,2.217,2.49,3.61,11151,15.25
 44704 (1999 SA11),2.318,0.1107,11.49,165.35,343.29,2.061,2.57,3.53,10359,15.11
 44705 (1999 SL11),2.462,0.0845,6.76,70.12,72.2,2.254,2.67,3.86,27199,14.53
 44706 (1999 SW24),2.57,0.031,1.83,161.84,241.54,2.49,2.65,4.12,11183,15.78
 44707 (1999 TR1),2.337,0.0842,6.26,199.5,227.15,2.141,2.53,3.57,10684,15.45
 44708 (1999 TS1),2.292,0.1357,2.04,198.88,113.59,1.98,2.6,3.47,9430,15.61
 44709 (1999 TV1),2.349,0.2439,2.67,170.66,175.45,1.776,2.92,3.6,11023,15.47
 44710 (1999 TM3),2.317,0.1408,4.21,85.95,205.8,1.991,2.64,3.53,9245,15.95
 44711 Carp (1999 TD4),2.255,0.2353,5.32,307.24,281.82,1.725,2.79,3.39,9522,14.82
 44712 (1999 TJ5),2.192,0.1715,3.85,347.14,6.88,1.816,2.57,3.24,9546,15.57
 44713 (1999 TP5),2.178,0.0053,1.73,111.26,239.77,2.166,2.19,3.21,9520,15.77
 44714 (1999 TS5),2.2,0.1787,3.7,337.21,25.04,1.807,2.59,3.26,11126,15.7
 44715 Paolovezzosi (1999 TZ5),2.195,0.1925,5.99,21.12,259.03,1.773,2.62,3.25,9537,15.81
 44716 (1999 TG6),2.35,0.222,4.38,8.84,258.87,1.828,2.87,3.6,9192,15.43
 44717 Borgoamozzano (1999 TY6),2.293,0.1707,3.74,14.06,254.47,1.901,2.68,3.47,11996,15.13
 44718 (1999 TP8),2.37,0.0616,2.57,69.15,258.38,2.224,2.52,3.65,11489,15.65
 44719 (1999 TP9),2.361,0.2203,2.31,18.82,336.12,1.841,2.88,3.63,9515,15.72
 44720 (1999 TS9),2.273,0.2072,5.69,31.21,273.24,1.802,2.74,3.43,9519,15.05
 44721 (1999 TG10),2.459,0.1316,2.25,350.31,161.36,2.135,2.78,3.86,9929,14.85
 44722 (1999 TQ10),2.151,0.1638,2.59,14.49,276.95,1.798,2.5,3.15,9125,16.54
 44723 (1999 TQ12),2.223,0.172,3.35,66.7,293.49,1.84,2.6,3.31,12063,16.22
 44724 (1999 TU13),2.273,0.145,6.58,36.12,313.13,1.943,2.6,3.43,11961,15.79
 44725 (1999 TD14),2.267,0.1376,5.72,216.91,140.19,1.955,2.58,3.41,12036,16.08
 44726 (1999 TT14),2.407,0.1389,3.13,49.01,170.91,2.073,2.74,3.73,10935,15.18
 44727 (1999 TZ14),2.244,0.232,7.72,182.32,156.89,1.723,2.76,3.36,12022,15.33
 44728 (1999 TT15),2.649,0.1376,13.12,241.8,216.05,2.285,3.01,4.31,13375,14.91
 44729 (1999 TF17),2.416,0.1297,1.58,117.12,323.14,2.103,2.73,3.76,10561,15.42
 44730 (1999 TY17),2.347,0.1889,4.55,49.97,335.75,1.903,2.79,3.59,15206,15.62
 44731 (1999 TF18),2.155,0.2049,0.54,225.87,123.3,1.714,2.6,3.16,11080,16.06
 44732 (1999 TM18),2.399,0.0928,2.15,230.77,262.73,2.176,2.62,3.72,10070,16.03
 44733 (1999 TW19),2.382,0.1474,1.44,243.41,331.31,2.031,2.73,3.68,11490,15.45
 44734 (1999 TJ25),2.371,0.1366,6.19,210.19,136.85,2.047,2.7,3.65,9520,15.63
 44735 (1999 TJ27),2.674,0.0738,1.93,358,326.33,2.476,2.87,4.37,12293,14.75
 44736 (1999 TF30),2.41,0.1628,1.62,325.06,117.42,2.018,2.8,3.74,9924,15.19
 44737 (1999 TW32),2.814,0.1584,8.71,196.73,125.6,2.368,3.26,4.72,9868,15.29
 44738 (1999 TD35),2.284,0.1989,24.05,194.77,45.21,1.83,2.74,3.45,13028,15.1
 44739 (1999 TV36),2.158,0.2019,4.55,290.25,29.07,1.723,2.59,3.17,9548,16.04
 44740 (1999 TJ37),2.556,0.12,8.86,130.69,30.58,2.249,2.86,4.09,9265,14.3
 44741 (1999 TO38),2.267,0.1247,5.42,178.35,303.99,1.984,2.55,3.41,10948,15.73
 44742 (1999 TK40),2.33,0.0799,3.86,70.14,80.7,2.144,2.52,3.56,10697,15.63
 44743 (1999 TR48),2.368,0.1464,2.58,149.21,7.62,2.021,2.72,3.64,12501,14.92
 44744 (1999 TX48),2.427,0.1104,2.58,146.83,33.41,2.159,2.7,3.78,15448,15.24
 44745 (1999 TZ54),2.347,0.0925,6.1,211.97,37.18,2.13,2.56,3.6,11217,16.43
 44746 (1999 TE61),2.793,0.1846,7.34,193.72,278.02,2.278,3.31,4.67,11642,15.39
 44747 (1999 TN80),2.419,0.1134,4.72,39.68,153.12,2.144,2.69,3.76,12472,14.65
 44748 (1999 TT86),2.638,0.1047,2.74,174.01,190.28,2.362,2.91,4.28,11893,15.94
 44749 (1999 TY91),2.291,0.1254,6.77,120.16,269.88,2.004,2.58,3.47,10868,15.85
 44750 (1999 TC94),2.314,0.1477,6.37,171.5,124.79,1.973,2.66,3.52,11788,16.08
 44751 (1999 TS97),2.404,0.1108,4.38,89.56,60.14,2.137,2.67,3.73,10486,15.11
 44752 (1999 TY99),2.278,0.0745,8.01,143.81,306.88,2.108,2.45,3.44,9364,15.6
 44753 (1999 TJ102),2.647,0.0298,15.65,91.54,56.66,2.569,2.73,4.31,10343,14.31
 44754 (1999 TJ105),2.218,0.1975,5.3,356.21,309.2,1.78,2.66,3.3,9538,15.59
 44755 (1999 TN105),2.257,0.0703,3.37,17.26,272.72,2.098,2.42,3.39,11983,16.29
 44756 (1999 TQ107),2.236,0.0512,6.28,240.96,244.48,2.122,2.35,3.34,9440,16.07
 44757 (1999 TF113),2.293,0.1654,3.87,279.49,29.17,1.914,2.67,3.47,9822,15.81
 44758 (1999 TH113),2.209,0.1315,4.34,242.07,351.56,1.919,2.5,3.28,9541,15.38
 44759 (1999 TY113),2.408,0.0966,6.36,207.8,64.78,2.175,2.64,3.74,9535,15.46
 44760 (1999 TJ114),2.298,0.1106,5.1,185.16,260.51,2.044,2.55,3.48,11392,15.75
 44761 (1999 TF115),2.407,0.075,5.34,275.77,278.38,2.227,2.59,3.74,10459,15.3
 44762 (1999 TZ115),2.314,0.049,6.65,351.32,155.54,2.201,2.43,3.52,10810,14.85
 44763 (1999 TM116),2.353,0.0506,1.47,22.86,34.07,2.234,2.47,3.61,9684,15.52
 44764 (1999 TG120),2.177,0.1061,3.69,331.11,74.5,1.946,2.41,3.21,9519,15.07
 44765 (1999 TP122),2.28,0.1467,5.34,165.02,246.49,1.946,2.61,3.44,11398,16.11
 44766 (1999 TM123),2.363,0.1787,5.8,54.86,69.16,1.941,2.79,3.63,11495,15.19
